     2.100          NAVIGATION                              RINEX VERSION / TYPE
fic2rin                                 01/12/2011 02:29:39 PGM / RUN BY / DATE
                                                            END OF HEADER
12 11  1 11 14  0  0.0 -.367336906493D-04  .329691829393D-11  .000000000000D+00
     .240000000000D+02 -.207500000000D+02  .442554148442D-08  .176944934188D+01
    -.125356018543D-05  .346398958936D-02  .558607280254D-05  .515352568436D+04
     .223200000000D+06  .540167093277D-07 -.565533845578D+00  .633299350739D-07
     .973696404398D+00  .279625000000D+03 -.325732910895D+00 -.805962142987D-08
     .135005623526D-09  .100000000000D+01  .161800000000D+04  .000000000000D+00
     .240000000000D+01  .000000000000D+00 -.116415321827D-07  .240000000000D+02
     .216006000000D+06  .400000000000D+01
13 11  1 11 14  0  0.0  .286249909550D-03 -.125055521494D-11  .000000000000D+00
     .320000000000D+02 -.217500000000D+02  .379658671450D-08 -.214551869207D+01
    -.111572444439D-05  .437366298866D-02  .689737498760D-05  .515365962410D+04
     .223200000000D+06  .100582838058D-06 -.259757906734D+01  .782310962677D-07
     .991237485591D+00  .263125000000D+03  .179056477374D+01 -.774425115057D-08
    -.268225458381D-09  .100000000000D+01  .161800000000D+04  .000000000000D+00
     .240000000000D+01  .000000000000D+00 -.107102096081D-07  .320000000000D+02
     .216006000000D+06  .400000000000D+01
14 11  1 11 14  0  0.0  .122938305140D-03  .295585778076D-11  .000000000000D+00
     .820000000000D+02 -.177187500000D+02  .388266172845D-08 -.219393235669D+01
    -.856816768646D-06  .568012963049D-02  .727176666260D-05  .515362033844D+04
     .223200000000D+06  .614672899246D-07 -.262087282080D+01 -.409781932831D-07
     .984362923398D+00  .253437500000D+03 -.207661455126D+01 -.773603652269D-08
    -.212508851847D-09  .100000000000D+01  .161800000000D+04  .000000000000D+00
     .240000000000D+01  .000000000000D+00 -.884756445885D-08  .820000000000D+02
     .216006000000D+06  .400000000000D+01
15 11  1 11 14  0  0.0 -.162345822901D-03  .386535248253D-11  .000000000000D+00
     .610000000000D+02 -.118750000000D+02  .465447959204D-08 -.251214010330D+01
    -.601634383202D-06  .323858705815D-02  .671669840813D-05  .515355476952D+04
     .223200000000D+06 -.633299350739D-07 -.269223667988D+01  .745058059692D-08
     .951704452002D+00  .247531250000D+03 -.171703031435D+00 -.820319883902D-08
    -.207151485834D-09  .100000000000D+01  .161800000000D+04  .000000000000D+00
     .485000000000D+01  .000000000000D+00 -.977888703346D-08  .610000000000D+02
     .216006000000D+06  .400000000000D+01
16 11  1 11 14  0  0.0 -.141820870340D-03 -.306954461848D-11  .000000000000D+00
     .390000000000D+02 -.238750000000D+02  .439982612756D-08 -.650550408116D+00
    -.132247805595D-05  .603411113843D-02  .582635402679D-05  .515372393417D+04
     .223200000000D+06  .763684511185D-07 -.547838302179D+00 -.132247805595D-06
     .974793606124D+00  .271343750000D+03 -.168801523604D+00 -.809033699501D-08
     .210365905441D-09  .100000000000D+01  .161800000000D+04  .000000000000D+00
     .240000000000D+01  .000000000000D+00 -.977888703346D-08  .390000000000D+02
     .216006000000D+06  .400000000000D+01
17 11  1 11 14  0  0.0  .181467738003D-03  .682121026330D-12  .000000000000D+00
     .380000000000D+02 -.485000000000D+02  .462412118464D-08 -.170434456756D+01
    -.246986746788D-05  .594687717967D-02  .812299549580D-05  .515370066071D+04
     .223200000000D+06  .745058059692D-07  .494645423167D+00 -.875443220139D-07
     .961016990581D+00  .222125000000D+03 -.248136456839D+01 -.795354558281D-08
    -.632169189527D-10  .100000000000D+01  .161800000000D+04  .000000000000D+00
     .240000000000D+01  .000000000000D+00 -.102445483208D-07  .380000000000D+02
     .216006000000D+06  .400000000000D+01
18 11  1 11 14  0  0.0  .115355011076D-03  .216004991671D-11  .000000000000D+00
     .850000000000D+02  .385625000000D+02  .544915555063D-08 -.380529407057D+00
     .207871198654D-05  .118402088992D-01  .485219061375D-05  .515375484276D+04
     .223200000000D+06  .335276126862D-07  .258057097109D+01  .149011611938D-06
     .934573893417D+00  .273312500000D+03 -.227811528414D+01 -.880322383247D-08
    -.134648465792D-09  .100000000000D+01  .161800000000D+04  .000000000000D+00
     .240000000000D+01  .000000000000D+00 -.107102096081D-07  .850000000000D+02
     .216006000000D+06  .400000000000D+01
19 11  1 11 14  0  0.0 -.100501347333D-03 -.352429196937D-11  .000000000000D+00
     .690000000000D+02 -.405625000000D+02  .469340978507D-08 -.249649041426D+01
    -.211037695408D-05  .687496701721D-02  .906176865101D-05  .515360795403D+04
     .223200000000D+06 -.106170773506D-06  .549039726577D+00 -.763684511185D-07
     .958533951929D+00  .205656250000D+03 -.144562463207D-01 -.797247494273D-08
    -.120004998690D-09  .100000000000D+01  .161800000000D+04  .000000000000D+00
     .240000000000D+01  .000000000000D+00 -.149011611938D-07  .690000000000D+02
     .216006000000D+06  .400000000000D+01
20 11  1 11 14  0  0.0  .488152727485D-04 -.113686837722D-12  .000000000000D+00
     .160000000000D+02  .529062500000D+02  .536165190575D-08 -.770731660639D-02
     .270828604698D-05  .461648218334D-02  .533275306225D-05  .515375224113D+04
     .223200000000D+06 -.521540641785D-07  .252663614099D+01  .167638063431D-07
     .934594734148D+00  .261500000000D+03  .126250879592D+01 -.863857411700D-08
    -.500020827875D-10  .100000000000D+01  .161800000000D+04  .000000000000D+00
     .240000000000D+01  .000000000000D+00 -.791624188423D-08  .160000000000D+02
     .216006000000D+06  .400000000000D+01
21 11  1 11 14  0  0.0 -.115907751024D-03 -.272848410532D-11  .000000000000D+00
     .260000000000D+02  .453750000000D+02  .533486507569D-08  .883428492606D+00
     .262260437012D-05  .171239975607D-01  .904314219952D-05  .515359730911D+04
     .223200000000D+06 -.143423676491D-06  .152509085123D+01  .167638063431D-06
     .931599643447D+00  .192718750000D+03 -.242072624828D+01 -.858607193007D-08
    -.156435087578D-09  .100000000000D+01  .161800000000D+04  .000000000000D+00
     .240000000000D+01  .000000000000D+00 -.116415321827D-07  .260000000000D+02
     .216006000000D+06  .400000000000D+01
22 11  1 11 14  0  0.0  .155319459736D-03 -.682121026330D-12  .000000000000D+00
     .270000000000D+02  .395000000000D+02  .537058084911D-08 -.123807624851D+01
     .199675559998D-05  .538146647159D-02  .481493771076D-05  .515371694374D+04
     .223200000000D+06  .596046447754D-07  .258499407026D+01  .117346644402D-06
     .932270473310D+00  .272375000000D+03 -.194101310644D+01 -.861000149827D-08
    -.153577825704D-09  .100000000000D+01  .161800000000D+04  .000000000000D+00
     .240000000000D+01  .000000000000D+00 -.176951289177D-07  .270000000000D+02
     .216006000000D+06  .400000000000D+01
23 11  1 11 14  0  0.0  .332829542458D-03 -.227373675443D-11  .000000000000D+00
     .480000000000D+02 -.216562500000D+02  .436875340469D-08 -.295163631198D+01
    -.114738941193D-05  .693349004723D-02  .658631324768D-05  .515360396004D+04
     .223200000000D+06 -.670552253723D-07 -.266388998397D+01  .167638063431D-07
     .966095557506D+00  .256031250000D+03  .313383232961D+01 -.800497629654D-08
    -.258225041824D-09  .100000000000D+01  .161800000000D+04  .000000000000D+00
     .240000000000D+01  .000000000000D+00 -.200234353542D-07  .480000000000D+02
     .216006000000D+06  .400000000000D+01
24 11  1 11 14  0  0.0  .355616677552D-03  .318323145621D-11  .000000000000D+00
     .340000000000D+02  .451875000000D+02  .480377152494D-08  .271082182084D+01
     .240094959736D-05  .575170014054D-02  .973604619503D-05  .515373416328D+04
     .223200000000D+06 -.745058059692D-07  .156763001177D+01  .122934579849D-06
     .948205767845D+00  .182343750000D+03 -.327750958109D+00 -.804747806691D-08
     .560737642688D-10  .100000000000D+01  .161800000000D+04  .000000000000D+00
     .240000000000D+01  .000000000000D+00 -.139698386192D-08  .340000000000D+02
     .216006000000D+06  .400000000000D+01
25 11  1 11 14  0  0.0 -.630198046565D-04 -.204636307899D-11  .000000000000D+00
     .800000000000D+01 -.229687500000D+02  .471591072233D-08 -.743039073440D+00
    -.124052166939D-05  .434337533079D-03  .543706119061D-05  .515371423912D+04
     .223200000000D+06  .484287738800D-07 -.593763155476D+00  .745058059692D-08
     .962430763390D+00  .278343750000D+03  .155812167478D+01 -.822284251440D-08
     .190007914592D-09  .100000000000D+01  .161800000000D+04  .100000000000D+01
     .240000000000D+01  .000000000000D+00  .465661287308D-08  .800000000000D+01
     .216006000000D+06  .400000000000D+01
26 11  1 11 14  0  0.0 -.936402939260D-04 -.909494701773D-11  .000000000000D+00
     .430000000000D+02 -.182812500000D+02  .367801034675D-08  .305124419645D+01
    -.992789864540D-06  .200566555141D-01  .713579356670D-05  .515364521408D+04
     .223200000000D+06  .128522515297D-06 -.260185101781D+01 -.230967998505D-06
     .988906398778D+00  .253750000000D+03  .111860048385D+01 -.744745307346D-08
    -.197508227010D-09  .100000000000D+01  .161800000000D+04  .000000000000D+00
     .240000000000D+01  .000000000000D+00 -.605359673500D-08  .430000000000D+02
     .216006000000D+06  .400000000000D+01
27 11  1 11 14  0  0.0  .225905794650D-03  .375166564481D-11  .000000000000D+00
     .152000000000D+03  .115625000000D+02  .380873007747D-08 -.216013556095D+01
     .946223735809D-06  .218595777405D-01  .756233930588D-05  .515373842430D+04
     .223200000000D+06  .214204192162D-06 -.167542112059D+01  .353902578354D-06
     .980010431974D+00  .238312500000D+03 -.131631838121D+01 -.754674292356D-08
     .217151902391D-09  .100000000000D+01  .161800000000D+04  .000000000000D+00
     .240000000000D+01  .000000000000D+00 -.419095158577D-08  .152000000000D+03
     .216006000000D+06  .400000000000D+01
